[
    {
       "OBJECT_NAME": "STARLINK-1930",
       "OBJECT_ID": "2020-074BC",
       "EPOCH": "2022-03-13T13:16:30.095040",
       "MEAN_MOTION": 15.06393351,
       "ECCENTRICITY": 0.0001626,
       "INCLINATION": 53.0568,
       "RA_OF_ASC_NODE": 22.9551,
       "ARG_OF_PERICENTER": 54.5757,
       "MEAN_ANOMALY": 305.5383,
       "EPHEMERIS_TYPE": 0,
       "CLASSIFICATION_TYPE": "U",
       "NORAD_CAT_ID": 46789,
       "ELEMENT_SET_NO": 999,
       "REV_AT_EPOCH": 7672,
       "BSTAR": -0.00018554,
       "MEAN_MOTION_DOT": -0.00003044,
       "MEAN_MOTION_DDOT": 0
    },
    {
       "OBJECT_NAME": "STARLINK-1931",
       "OBJECT_ID": "2020-074BD",
       "EPOCH": "2022-03-13T06:23:52.014336",
       "MEAN_MOTION": 15.06389648,
       "ECCENTRICITY": 0.0001817,
       "INCLINATION": 53.057,
       "RA_OF_ASC_NODE": 24.2435,
       "ARG_OF_PERICENTER": 55.2925,
       "MEAN_ANOMALY": 304.8235,
       "EPHEMERIS_TYPE": 0,
       "CLASSIFICATION_TYPE": "U",
       "NORAD_CAT_ID": 46790,
       "ELEMENT_SET_NO": 999,
       "REV_AT_EPOCH": 7700,
       "BSTAR": -0.00018117,
       "MEAN_MOTION_DOT": -0.00002978,
       "MEAN_MOTION_DDOT": 0
    },
    {
       "OBJECT_NAME": "STARLINK-1933",
       "OBJECT_ID": "2020-074BE",
       "EPOCH": "2022-03-13T08:20:37.576896",
       "MEAN_MOTION": 15.063905,
       "ECCENTRICITY": 0.000166,
       "INCLINATION": 53.0541,
       "RA_OF_ASC_NODE": 23.8715,
       "ARG_OF_PERICENTER": 54.2024,
       "MEAN_ANOMALY": 305.9119,
       "EPHEMERIS_TYPE": 0,
       "CLASSIFICATION_TYPE": "U",
       "NORAD_CAT_ID": 46791,
       "ELEMENT_SET_NO": 999,
       "REV_AT_EPOCH": 7702,
       "BSTAR": -0.00033819,
       "MEAN_MOTION_DOT": -0.00005314,
       "MEAN_MOTION_DDOT": 0
    },
    {
       "OBJECT_NAME": "STARLINK-1934",
       "OBJECT_ID": "2020-074BF",
       "EPOCH": "2022-03-13T07:23:35.074176",
       "MEAN_MOTION": 15.06389398,
       "ECCENTRICITY": 0.0001992,
       "INCLINATION": 53.0558,
       "RA_OF_ASC_NODE": 14.0508,
       "ARG_OF_PERICENTER": 46.8711,
       "MEAN_ANOMALY": 313.2444,
       "EPHEMERIS_TYPE": 0,
       "CLASSIFICATION_TYPE": "U",
       "NORAD_CAT_ID": 46792,
       "ELEMENT_SET_NO": 999,
       "REV_AT_EPOCH": 7715,
       "BSTAR": -0.00018733,
       "MEAN_MOTION_DOT": -0.0000307,
       "MEAN_MOTION_DDOT": 0
    },
    {
       "OBJECT_NAME": "STARLINK-1941",
       "OBJECT_ID": "2020-074BG",
       "EPOCH": "2022-03-13T04:53:38.008896",
       "MEAN_MOTION": 15.06390207,
       "ECCENTRICITY": 0.000198,
       "INCLINATION": 53.0561,
       "RA_OF_ASC_NODE": 24.5287,
       "ARG_OF_PERICENTER": 53.7516,
       "MEAN_ANOMALY": 306.3655,
       "EPHEMERIS_TYPE": 0,
       "CLASSIFICATION_TYPE": "U",
       "NORAD_CAT_ID": 46793,
       "ELEMENT_SET_NO": 999,
       "REV_AT_EPOCH": 7699,
       "BSTAR": -0.00012731,
       "MEAN_MOTION_DOT": -0.00002177,
       "MEAN_MOTION_DDOT": 0
    },
    {
       "OBJECT_NAME": "STARLINK-1942",
       "OBJECT_ID": "2020-074BH",
       "EPOCH": "2022-03-13T08:15:19.096128",
       "MEAN_MOTION": 15.0638979,
       "ECCENTRICITY": 0.000269,
       "INCLINATION": 53.056,
       "RA_OF_ASC_NODE": 23.9039,
       "ARG_OF_PERICENTER": 42.9449,
       "MEAN_ANOMALY": 317.175,
       "EPHEMERIS_TYPE": 0,
       "CLASSIFICATION_TYPE": "U",
       "NORAD_CAT_ID": 46794,
       "ELEMENT_SET_NO": 999,
       "REV_AT_EPOCH": 7702,
       "BSTAR": -0.00040204,
       "MEAN_MOTION_DOT": -0.00006264,
       "MEAN_MOTION_DDOT": 0
    },
    {
       "OBJECT_NAME": "STARLINK-1944",
       "OBJECT_ID": "2020-074BK",
       "EPOCH": "2022-03-13T07:39:28.988064",
       "MEAN_MOTION": 15.06395655,
       "ECCENTRICITY": 0.0001884,
       "INCLINATION": 53.0562,
       "RA_OF_ASC_NODE": 14.0158,
       "ARG_OF_PERICENTER": 40.9905,
       "MEAN_ANOMALY": 319.1225,
       "EPHEMERIS_TYPE": 0,
       "CLASSIFICATION_TYPE": "U",
       "NORAD_CAT_ID": 46796,
       "ELEMENT_SET_NO": 999,
       "REV_AT_EPOCH": 7715,
       "BSTAR": 0.0001106,
       "MEAN_MOTION_DOT": 0.00001366,
       "MEAN_MOTION_DDOT": 0
    },
    {
       "OBJECT_NAME": "STARLINK-1947",
       "OBJECT_ID": "2020-074BL",
       "EPOCH": "2022-03-13T20:55:58.044576",
       "MEAN_MOTION": 15.74139148,
       "ECCENTRICITY": 0.0008182,
       "INCLINATION": 53.0519,
       "RA_OF_ASC_NODE": 289.9247,
       "ARG_OF_PERICENTER": 277.1051,
       "MEAN_ANOMALY": 82.9037,
       "EPHEMERIS_TYPE": 0,
       "CLASSIFICATION_TYPE": "U",
       "NORAD_CAT_ID": 46797,
       "ELEMENT_SET_NO": 999,
       "REV_AT_EPOCH": 7812,
       "BSTAR": 0.0013617,
       "MEAN_MOTION_DOT": 0.00203588,
       "MEAN_MOTION_DDOT": 0
    },
    {
       "OBJECT_NAME": "STARLINK-1948",
       "OBJECT_ID": "2020-074BM",
       "EPOCH": "2022-03-13T21:09:33.626016",
       "MEAN_MOTION": 15.06396048,
       "ECCENTRICITY": 0.0001702,
       "INCLINATION": 53.0549,
       "RA_OF_ASC_NODE": 36.4896,
       "ARG_OF_PERICENTER": 58.3228,
       "MEAN_ANOMALY": 301.7926,
       "EPHEMERIS_TYPE": 0,
       "CLASSIFICATION_TYPE": "U",
       "NORAD_CAT_ID": 46798,
       "ELEMENT_SET_NO": 999,
       "REV_AT_EPOCH": 7663,
       "BSTAR": -0.00007763,
       "MEAN_MOTION_DOT": -0.00001438,
       "MEAN_MOTION_DDOT": 0
    },
    {
       "OBJECT_NAME": "COSMOS 2547 [GLONASS-K]",
       "OBJECT_ID": "2020-075A",
       "EPOCH": "2022-03-13T12:23:56.958144",
       "MEAN_MOTION": 2.13103021,
       "ECCENTRICITY": 0.000511,
       "INCLINATION": 64.6792,
       "RA_OF_ASC_NODE": 244.7075,
       "ARG_OF_PERICENTER": 246.6248,
       "MEAN_ANOMALY": 193.6346,
       "EPHEMERIS_TYPE": 0,
       "CLASSIFICATION_TYPE": "U",
       "NORAD_CAT_ID": 46805,
       "ELEMENT_SET_NO": 999,
       "REV_AT_EPOCH": 1073,
       "BSTAR": 0,
       "MEAN_MOTION_DOT": 6.9e-7,
       "MEAN_MOTION_DDOT": 0
    },
    {
       "OBJECT_NAME": "YAOGAN 30 U",
       "OBJECT_ID": "2020-076A",
       "EPOCH": "2022-03-13T03:30:13.894560",
       "MEAN_MOTION": 14.90228782,
       "ECCENTRICITY": 0.0001489,
       "INCLINATION": 34.996,
       "RA_OF_ASC_NODE": 118.7115,
       "ARG_OF_PERICENTER": 294.3922,
       "MEAN_ANOMALY": 65.6701,
       "EPHEMERIS_TYPE": 0,
       "CLASSIFICATION_TYPE": "U",
       "NORAD_CAT_ID": 46807,
       "ELEMENT_SET_NO": 999,
       "REV_AT_EPOCH": 7498,
       "BSTAR": 0.00013057,
       "MEAN_MOTION_DOT": 0.00001263,
       "MEAN_MOTION_DDOT": 0
    },
    {
       "OBJECT_NAME": "YAOGAN 30 V",
       "OBJECT_ID": "2020-076B",
       "EPOCH": "2022-03-13T19:02:42.503136",
       "MEAN_MOTION": 14.90224803,
       "ECCENTRICITY": 0.0002378,
       "INCLINATION": 34.9969,
       "RA_OF_ASC_NODE": 114.543,
       "ARG_OF_PERICENTER": 201.7369,
       "MEAN_ANOMALY": 158.3321,
       "EPHEMERIS_TYPE": 0,
       "CLASSIFICATION_TYPE": "U",
       "NORAD_CAT_ID": 46808,
       "ELEMENT_SET_NO": 999,
       "REV_AT_EPOCH": 7508,
       "BSTAR": 0.00015207,
       "MEAN_MOTION_DOT": 0.00001476,
       "MEAN_MOTION_DDOT": 0
    },
    {
       "OBJECT_NAME": "YAOGAN 30 W",
       "OBJECT_ID": "2020-076C",
       "EPOCH": "2022-03-13T13:41:37.908096",
       "MEAN_MOTION": 14.90220775,
       "ECCENTRICITY": 0.0008024,
       "INCLINATION": 34.9987,
       "RA_OF_ASC_NODE": 115.6146,
       "ARG_OF_PERICENTER": 262.191,
       "MEAN_ANOMALY": 97.7971,
       "EPHEMERIS_TYPE": 0,
       "CLASSIFICATION_TYPE": "U",
       "NORAD_CAT_ID": 46809,
       "ELEMENT_SET_NO": 999,
       "REV_AT_EPOCH": 7504,
       "BSTAR": 0.00014653,
       "MEAN_MOTION_DOT": 0.00001421,
       "MEAN_MOTION_DDOT": 0
    }
 ]