STARLINK-1930           
1 46789U 20074BC  22072.55312610 -.00003044  00000+0 -18554-3 0  9991
2 46789  53.0568  22.9551 0001626  54.5757 305.5383 15.06393351 76720
STARLINK-1931           
1 46790U 20074BD  22072.26657424 -.00002978  00000+0 -18117-3 0  9996
2 46790  53.0570  24.2435 0001817  55.2925 304.8235 15.06389648 77002
STARLINK-1933           
1 46791U 20074BE  22072.34765714 -.00005314  00000+0 -33819-3 0  9991
2 46791  53.0541  23.8715 0001660  54.2024 305.9119 15.06390500 77026
STARLINK-1934           
1 46792U 20074BF  22072.30804484 -.00003070  00000+0 -18733-3 0  9991
2 46792  53.0558  14.0508 0001992  46.8711 313.2444 15.06389398 77155
STARLINK-1941           
1 46793U 20074BG  22072.20391214 -.00002177  00000+0 -12731-3 0  9992
2 46793  53.0561  24.5287 0001980  53.7516 306.3655 15.06390207 76996
STARLINK-1942           
1 46794U 20074BH  22072.34397102 -.00006264  00000+0 -40204-3 0  9997
2 46794  53.0560  23.9039 0002690  42.9449 317.1750 15.06389790 77024
STARLINK-1944           
1 46796U 20074BK  22072.31908551  .00001366  00000+0  11060-3 0  9996
2 46796  53.0562  14.0158 0001884  40.9905 319.1225 15.06395655 77150
STARLINK-1947           
1 46797U 20074BL  22072.87219959  .00203588  00000+0  13617-2 0  9994
2 46797  53.0519 289.9247 0008182 277.1051  82.9037 15.74139148 78121
STARLINK-1948           
1 46798U 20074BM  22072.88163919 -.00001438  00000+0 -77630-4 0  9999
2 46798  53.0549  36.4896 0001702  58.3228 301.7926 15.06396048 76638
COSMOS 2547 [GLONASS-K] 
1 46805U 20075A   22072.51663146  .00000069  00000+0  00000+0 0  9995
2 46805  64.6792 244.7075 0005110 246.6248 193.6346  2.13103021 10733
YAOGAN 30 U             
1 46807U 20076A   22072.14599415  .00001263  00000+0  13057-3 0  9991
2 46807  34.9960 118.7115 0001489 294.3922  65.6701 14.90228782 74981
YAOGAN 30 V             
1 46808U 20076B   22072.79354749  .00001476  00000+0  15207-3 0  9997
2 46808  34.9969 114.5430 0002378 201.7369 158.3321 14.90224803 75080
YAOGAN 30 W             
1 46809U 20076C   22072.57057764  .00001421  00000+0  14653-3 0  9995
2 46809  34.9987 115.6146 0008024 262.1910  97.7971 14.90220775 75041
